[{"OBJECT_NAME":"STARLINK-5639","OBJECT_ID":"2023-013AL","EPOCH":"2026-03-09T01:11:39.624288","MEAN_MOTION":15.02536291,"ECCENTRICITY":0.00010275,"INCLINATION":43.003,"RA_OF_ASC_NODE":316.7586,"ARG_OF_PERICENTER":271.3719,"MEAN_ANOMALY":88.7006,"EPHEMERIS_TYPE":0,"CLASSIFICATION_TYPE":"U","NORAD_CAT_ID":55365,"ELEMENT_SET_NO":999,"REV_AT_EPOCH":17146,"BSTAR":-3.7624414e-5,"MEAN_MOTION_DOT":-7.12e-6,"MEAN_MOTION_DDOT":0},{"OBJECT_NAME":"TIROS 5","OBJECT_ID":"1962-025A","EPOCH":"2026-03-09T18:19:03.462528","MEAN_MOTION":14.60548226,"ECCENTRICITY":0.0188246,"INCLINATION":58.0885,"RA_OF_ASC_NODE":225.1954,"ARG_OF_PERICENTER":128.0206,"MEAN_ANOMALY":233.7985,"EPHEMERIS_TYPE":0,"CLASSIFICATION_TYPE":"U","NORAD_CAT_ID":309,"ELEMENT_SET_NO":999,"REV_AT_EPOCH":36730,"BSTAR":0.00024813109,"MEAN_MOTION_DOT":1.341e-5,"MEAN_MOTION_DDOT":0}]
